OBJECT_NAME,OBJECT_ID,EPOCH,MEAN_MOTION,ECCENTRICITY,INCLINATION,RA_OF_ASC_NODE,ARG_OF_PERICENTER,MEAN_ANOMALY,EPHEMERIS_TYPE,CLASSIFICATION_TYPE,NORAD_CAT_ID,ELEMENT_SET_NO,REV_AT_EPOCH,BSTAR,MEAN_MOTION_DOT,MEAN_MOTION_DDOT
STARLINK-37758,2026-115J,2026-06-14T12:00:02.998944,15.67143917,.0001602,97.2841,182.8211,106.8993,164.0081,0,U,69219,999,426,-.26491E-1,-.2472897E-1,0
STARLINK-37201,2026-115K,2026-06-14T12:00:02.998944,15.67118995,.000183,97.2839,182.8199,107.7113,158.1785,0,U,69220,999,426,-.27132E-1,-.2522951E-1,0
STARLINK-37728,2026-115L,2026-06-14T12:00:02.998944,15.65414809,.0001423,97.2839,182.8168,110.2961,151.8573,0,U,69221,999,426,-.29207E-1,-.2532921E-1,0
STARLINK-37760,2026-115M,2026-06-14T12:00:02.998944,15.68765597,.000157,97.2841,182.8236,110.8639,166.9305,0,U,69222,999,426,-.25833E-1,-.2563676E-1,0
STARLINK-37759,2026-115N,2026-06-14T12:00:02.998944,15.56288356,.0001997,97.2842,182.7580,93.7522,32.3418,0,U,69223,999,426,-.32495E-1,-.2001423E-1,0
STARLINK-37725,2026-115P,2026-06-14T12:00:02.998944,15.56424365,.0001682,97.2847,182.7685,83.7869,56.6588,0,U,69224,999,426,-.38404E-1,-.237431E-1,0
STARLINK-37770,2026-115Q,2026-06-14T12:00:02.998944,15.69737253,.000137,97.2837,182.8311,108.0898,189.6806,0,U,69225,999,426,-.2446E-1,-.253188E-1,0
STARLINK-37736,2026-115R,2026-06-14T12:00:02.998944,15.67588211,.0001431,97.2840,182.8262,111.5944,170.1958,0,U,69226,999,426,-.26246E-1,-.2491924E-1,0
STARLINK-37737,2026-115S,2026-06-14T12:00:02.998944,15.70277732,.0001506,97.2836,182.8392,110.0831,206.6705,0,U,69227,999,428,-.23451E-1,-.2489273E-1,0
STARLINK-37618,2026-115T,2026-06-14T12:00:02.998944,15.54370417,.0001831,97.2848,182.7637,78.6236,52.1936,0,U,69228,999,426,-.42123E-1,-.2408533E-1,0
STARLINK-37679,2026-115U,2026-06-14T12:00:02.998944,15.55151946,.0001743,97.2842,182.7685,82.3138,60.1191,0,U,69229,999,426,-.4143E-1,-.2434231E-1,0
STARLINK-37746,2026-115V,2026-06-14T12:00:02.998944,15.53271832,.0001396,97.2841,182.7481,76.4207,26.8358,0,U,69230,999,426,-.47099E-1,-.2615642E-1,0
STARLINK-37557,2026-115W,2026-06-14T12:00:02.998944,15.49142196,.0001761,97.2837,182.6933,110.9291,218.7424,0,U,69231,999,426,.2046E-2,.11261E-2,0
STARLINK-37745,2026-115X,2026-06-14T12:00:02.998944,15.71387987,.0000946,97.2837,182.8576,88.3891,271.1292,0,U,69232,999,426,-.20804E-1,-.2286166E-1,0
STARLINK-37739,2026-115Y,2026-06-14T12:00:02.998944,15.53857050,.0001495,97.2842,182.7451,73.5472,14.2880,0,U,69233,999,426,-.42633E-1,-.2394013E-1,0
STARLINK-37755,2026-115Z,2026-06-14T11:07:41.648736,15.75246078,.0001492,97.2831,182.7569,82.8983,277.2452,0,U,69234,999,425,.1317E-2,.201509E-2,0
TJS-24,2026-116A,2026-06-14T12:37:40.414080,1.00267437,.0000361,0.0128,2.4850,65.9628,114.0689,0,U,69235,999,20,0,0,0
STARLINK-37665,2026-117A,2026-06-14T12:41:36.873600,15.82047218,.0000803,53.1587,256.9668,79.9071,280.2043,0,U,69238,999,255,.83223E-3,.176308E-2,0
STARLINK-37558,2026-117B,2026-06-14T12:40:14.738304,15.82043641,.0000763,53.1584,256.9600,87.8307,272.2803,0,U,69239,999,255,.82692E-3,.175126E-2,0
STARLINK-37680,2026-117C,2026-06-14T12:38:10.356864,15.82061287,.0001324,53.1588,256.9499,72.3113,287.8055,0,U,69240,999,255,.10342E-2,.22054E-2,0
STARLINK-37742,2026-117D,2026-06-14T12:35:36.283200,15.82040024,.0001445,53.1590,256.9387,68.0935,292.0242,0,U,69241,999,255,.83103E-3,.175987E-2,0
STARLINK-37718,2026-117E,2026-06-14T12:33:49.383936,15.81993113,.0002992,53.1589,256.9293,130.2675,229.8610,0,U,69242,999,255,.17995E-2,.390742E-2,0
STARLINK-37735,2026-117F,2026-06-14T09:31:43.785120,15.82037320,.0001035,53.1589,257.5626,93.2803,266.8339,0,U,69243,999,253,.89496E-3,.189863E-2,0
STARLINK-37757,2026-117G,2026-06-14T12:30:13.383072,15.82048236,.0000915,53.1590,256.9134,76.0711,284.0414,0,U,69244,999,255,.82673E-3,.175121E-2,0
STARLINK-37767,2026-117H,2026-06-14T12:24:04.932000,15.82047344,.0001066,53.1588,256.8832,59.0534,301.0594,0,U,69245,999,255,.79232E-3,.16765E-2,0
STARLINK-35759,2026-117J,2026-06-14T12:23:05.847360,15.82031129,.000101,53.1588,256.8791,52.3597,307.7518,0,U,69246,999,255,.69267E-3,.145995E-2,0
STARLINK-37238,2026-117K,2026-06-14T12:16:42.220128,15.82043232,.0001189,53.1591,256.8485,62.8934,297.2210,0,U,69247,999,255,.92461E-3,.196379E-2,0
STARLINK-37412,2026-117L,2026-06-14T12:11:50.949312,15.82031510,.0000927,53.1593,256.8257,67.8966,292.2155,0,U,69248,999,255,.69722E-3,.146978E-2,0
STARLINK-37398,2026-117M,2026-06-14T12:15:20.880576,15.80916529,.0001228,53.1596,256.8421,93.9780,266.1383,0,U,69249,999,255,.9432E-3,.189991E-2,0
