STARLINK-37758          
1 69219U 26115J   26165.50003471 -.02472897  00000+0 -26491-1 0  9995
2 69219  97.2841 182.8211 0001602 106.8993 164.0081 15.67143917  4264
STARLINK-37201          
1 69220U 26115K   26165.50003471 -.02522951  00000+0 -27132-1 0  9997
2 69220  97.2839 182.8199 0001830 107.7113 158.1785 15.67118995  4268
STARLINK-37728          
1 69221U 26115L   26165.50003471 -.02532921  00000+0 -29207-1 0  9991
2 69221  97.2839 182.8168 0001423 110.2961 151.8573 15.65414809  4269
STARLINK-37760          
1 69222U 26115M   26165.50003471 -.02563676  00000+0 -25833-1 0  9994
2 69222  97.2841 182.8236 0001570 110.8639 166.9305 15.68765597  4266
STARLINK-37759          
1 69223U 26115N   26165.50003471 -.02001423  00000+0 -32495-1 0  9994
2 69223  97.2842 182.7580 0001997  93.7522  32.3418 15.56288356  4263
STARLINK-37725          
1 69224U 26115P   26165.50003471 -.02374310  00000+0 -38404-1 0  9999
2 69224  97.2847 182.7685 0001682  83.7869  56.6588 15.56424365  4268
STARLINK-37770          
1 69225U 26115Q   26165.50003471 -.02531880  00000+0 -24460-1 0  9994
2 69225  97.2837 182.8311 0001370 108.0898 189.6806 15.69737253  4269
STARLINK-37736          
1 69226U 26115R   26165.50003471 -.02491924  00000+0 -26246-1 0  9993
2 69226  97.2840 182.8262 0001431 111.5944 170.1958 15.67588211  4267
STARLINK-37737          
1 69227U 26115S   26165.50003471 -.02489273  00000+0 -23451-1 0  9993
2 69227  97.2836 182.8392 0001506 110.0831 206.6705 15.70277732  4283
STARLINK-37618          
1 69228U 26115T   26165.50003471 -.02408533  00000+0 -42123-1 0  9991
2 69228  97.2848 182.7637 0001831  78.6236  52.1936 15.54370417  4261
STARLINK-37679          
1 69229U 26115U   26165.50003471 -.02434231  00000+0 -41430-1 0  9996
2 69229  97.2842 182.7685 0001743  82.3138  60.1191 15.55151946  4261
STARLINK-37746          
1 69230U 26115V   26165.50003471 -.02615642  00000+0 -47099-1 0  9992
2 69230  97.2841 182.7481 0001396  76.4207  26.8358 15.53271832  4260
STARLINK-37557          
1 69231U 26115W   26165.50003471  .00112610  00000+0  20460-2 0  9990
2 69231  97.2837 182.6933 0001761 110.9291 218.7424 15.49142196  4261
STARLINK-37745          
1 69232U 26115X   26165.50003471 -.02286166  00000+0 -20804-1 0  9994
2 69232  97.2837 182.8576 0000946  88.3891 271.1292 15.71387987  4265
STARLINK-37739          
1 69233U 26115Y   26165.50003471 -.02394013  00000+0 -42633-1 0  9990
2 69233  97.2842 182.7451 0001495  73.5472  14.2880 15.53857050  4266
STARLINK-37755          
1 69234U 26115Z   26165.46367649  .00201509  00000+0  13170-2 0  9994
2 69234  97.2831 182.7569 0001492  82.8983 277.2452 15.75246078  4253
TJS-24                  
1 69235U 26116A   26165.52616220  .00000000  00000+0  00000+0 0  9993
2 69235   0.0128   2.4850 0000361  65.9628 114.0689  1.00267437   204
STARLINK-37665          
1 69238U 26117A   26165.52889900  .00176308  00000+0  83223-3 0  9991
2 69238  53.1587 256.9668 0000803  79.9071 280.2043 15.82047218  2554
STARLINK-37558          
1 69239U 26117B   26165.52794836  .00175126  00000+0  82692-3 0  9991
2 69239  53.1584 256.9600 0000763  87.8307 272.2803 15.82043641  2554
STARLINK-37680          
1 69240U 26117C   26165.52650876  .00220540  00000+0  10342-2 0  9991
2 69240  53.1588 256.9499 0001324  72.3113 287.8055 15.82061287  2551
STARLINK-37742          
1 69241U 26117D   26165.52472550  .00175987  00000+0  83103-3 0  9993
2 69241  53.1590 256.9387 0001445  68.0935 292.0242 15.82040024  2551
STARLINK-37718          
1 69242U 26117E   26165.52348824  .00390742  00000+0  17995-2 0  9993
2 69242  53.1589 256.9293 0002992 130.2675 229.8610 15.81993113  2559
STARLINK-37735          
1 69243U 26117F   26165.39703455  .00189863  00000+0  89496-3 0  9990
2 69243  53.1589 257.5626 0001035  93.2803 266.8339 15.82037320  2532
STARLINK-37757          
1 69244U 26117G   26165.52098823  .00175121  00000+0  82673-3 0  9994
2 69244  53.1590 256.9134 0000915  76.0711 284.0414 15.82048236  2551
STARLINK-37767          
1 69245U 26117H   26165.51672375  .00167650  00000+0  79232-3 0  9999
2 69245  53.1588 256.8832 0001066  59.0534 301.0594 15.82047344  2553
STARLINK-35759          
1 69246U 26117J   26165.51603990  .00145995  00000+0  69267-3 0  9992
2 69246  53.1588 256.8791 0001010  52.3597 307.7518 15.82031129  2555
STARLINK-37238          
1 69247U 26117K   26165.51159977  .00196379  00000+0  92461-3 0  9998
2 69247  53.1591 256.8485 0001189  62.8934 297.2210 15.82043232  2558
STARLINK-37412          
1 69248U 26117L   26165.50822858  .00146978  00000+0  69722-3 0  9997
2 69248  53.1593 256.8257 0000927  67.8966 292.2155 15.82031510  2556
STARLINK-37398          
1 69249U 26117M   26165.51065834  .00189991  00000+0  94320-3 0  9996
2 69249  53.1596 256.8421 0001228  93.9780 266.1383 15.80916529  2555
